LEMUR-2-ALISIA          
1 62706U 25009DB  26162.47573205  .00006226  00000+0  47098-3 0  9993
2 62706  97.6968 244.6844 0001332 189.2646 170.8554 15.02687690 99300
LEMUR-2-ROUNDTRIPPER    
1 62711U 25009DG  26162.77039953  .00008051  00000+0  59143-3 0  9991
2 62711  97.7253 245.4570 0004758 148.5367 211.6143 15.03700151 76810
LEMUR-2-MYNAMEISJEFF    
1 62712U 25009DH  26162.76884149  .00007748  00000+0  56928-3 0  9996
2 62712  97.7302 245.8332 0002960 172.2855 187.8416 15.03713228 76811
LEMUR-2-LEIA-PHILIP     
1 63246U 25052AN  26162.65664289  .00001821  00000+0  16197-3 0  9996
2 63246  97.6848  54.7005 0002096 230.2927 129.8111 14.97304634 67847
LEMUR-2-LIA-MARTIN      
1 63248U 25052AQ  26162.66343824  .00004394  00000+0  37930-3 0  9994
2 63248  97.6919  55.1739 0002592 164.8296 195.3004 14.97762205 67851
LEMUR-2-DELOITTE-1      
1 63259U 25052BB  26162.70589712  .00003780  00000+0  32870-3 0  9995
2 63259  97.6925  55.5445 0002913 108.5002 251.6536 14.97560412 67879
LEMUR-2-EMERSONROSE     
1 63261U 25052BD  26162.68647426  .00003281  00000+0  27529-3 0  9993
2 63261  97.6903  56.0741 0002105  67.0289 293.1156 14.99042683 67913
LEMUR-2-MARACHE-FRAN    
1 63262U 25052BE  26162.66552062  .00005511  00000+0  44713-3 0  9995
2 63262  97.6956  56.3574 0005925  41.5643 318.6030 15.00045395 67935
LEMUR-2-THEFALCONER     
1 63264U 25052BG  26162.66468750  .00003312  00000+0  29015-3 0  9992
2 63264  97.6886  55.1306 0003321  51.0273 309.1245 14.97356604 67860
LEMUR-2-UNTITLED-SC     
1 63351U 25061A   26162.86556067  .00003288  00000+0  18715-3 0  9997
2 63351  97.5631 138.2661 0017013 285.0778  74.8570 15.13434654 66781
LEMUR-2-ESPERANZA       
1 63352U 25061B   26162.44634697  .00002480  00000+0  14178-3 0  9990
2 63352  97.5635 137.9421 0016534 286.0014  73.9396 15.13524599 66725
LEMUR-2-KREMPEL-BRO2    
1 63353U 25061C   26162.87153867  .00003685  00000+0  20618-3 0  9997
2 63353  97.5683 138.8908 0017471 275.8934  84.0306 15.13964565 66801
LEMUR-2-THERMORAPTOR    
1 63354U 25061D   26162.45734123  .00002970  00000+0  16660-3 0  9990
2 63354  97.5688 138.5536 0017110 276.3614  83.5669 15.14039692 66746
LEMUR-2-NEUROSPICY      
1 63355U 25061E   26162.16510867  .00003121  00000+0  17447-3 0  9999
2 63355  97.5614 137.8938 0015036 281.7235  78.2310 15.14151039 66708
LEMUR-2-TILLINFINITY    
1 63356U 25061F   26162.66511492  .00003494  00000+0  19157-3 0  9993
2 63356  97.5601 138.6774 0016211 266.3855  93.5523 15.14742784 66805
LEMUR-2-KREMPEL-BRO1    
1 63357U 25061G   26162.24146706  .00002810  00000+0  15562-3 0  9997
2 63357  97.5601 138.1738 0016843 269.3774  90.5528 15.14543691 66735
LEMUR-2-LANGER2SPACE    
1 63358U 25061H   26162.66327507  .00003544  00000+0  19708-3 0  9995
2 63358  97.5606 138.4094 0014877 277.9438  82.0105 15.14245348 66786
LEMUR-2-BALTO           
1 63395U 25052BH  26162.65013986  .00005424  00000+0  44038-3 0  9991
2 63395  97.6893  56.3243 0006812  71.7793 288.4172 15.00025752 67938
LEMUR-2-KRISH           
1 64561U 25135AK  26162.25593787  .00004237  00000+0  38142-3 0  9997
2 64561  97.7727 277.1737 0001470 107.2070 252.9312 14.96147894 53034
LEMUR-2-HUBBLE-4        
1 64565U 25135AP  26162.23930764  .00001049  00000+0  10592-3 0  9996
2 64565  97.7693 276.2178 0001361 344.2917  15.8260 14.93179582 52988
LEMUR-2-SEJONG-2        
1 64586U 25135BL  26162.88959046  .00003481  00000+0  31020-3 0  9995
2 64586  97.7686 277.9474 0004264   3.8495 356.2759 14.96658997 53154
LEMUR-2-HUBBLE-5        
1 64840U 25135BT  26162.59893899  .00001780  00000+0  17182-3 0  9992
2 64840  97.7712 277.1976 0005520  13.3853 346.7512 14.94119468 53071
LEMUR-2-KARENDARRELL    
1 64841U 25135BU  26162.58166242  .00007147  00000+0  57839-3 0  9993
2 64841  97.7670 278.7999 0009310 223.7742 136.2744 15.00029122 53177
LEMUR-2-LUCILLE-ROSE    
1 65403U 25135BV  26162.55556558  .00006436  00000+0  52049-3 0  9996
2 65403  97.7768 278.7865 0010793 304.7867  55.2340 15.00083531 47794
LEMUR-2-AFFIE-WAUWIE    
1 66295U 25248C   26161.25212135  .00012829  00000+0  48614-3 0  9993
2 66295  45.3855 152.5549 0008368  38.3394 321.8088 15.26939127 33535
LEMUR-2-DEANANDMAEVE    
1 66678U 25276N   26162.71790845  .00005770  00000+0  27356-3 0  9997
2 66678  97.4216 236.2843 0006247  32.7968 327.3654 15.19665600 29589
LEMUR-2-STAS-GORBUK     
1 66686U 25276W   26162.73116322  .00005101  00000+0  24463-3 0  9994
2 66686  97.4253 236.3526 0005656  33.5357 326.6235 15.19323108 29583
LEMUR-2-TEODOR          
1 66768U 25276DG  26162.72091980  .00004929  00000+0  22545-3 0  9992
2 66768  97.4155 236.5722 0002000 121.4051 238.7380 15.20990387 29612
LEMUR-2-LAILA           
1 66776U 25276DQ  26162.16939453  .00004932  00000+0  22420-3 0  9991
2 66776  97.4179 236.1463 0001828 143.6589 216.4771 15.21204262 29533
LEMUR-2-CELIJO-SB-PK    
1 66781U 25276DW  26162.69970323  .00006114  00000+0  49688-3 0  9995
2 66781  97.5276 233.6565 0008901 145.4415 214.7389 14.99907375 21807
